EVENT_NAME: 202010301151
EVENT_ID: 10614
EVENT_DATE_YYYYMMDD: 2020/10/30
EVENT_TIME_HHMMSS: 11:51:24.00000
EVENT_LATITUDE_DEGREE: 37.879
EVENT_LONGITUDE_DEGREE: 26.703
EVENT_DEPTH_KM: 16.54
HYPOCENTER_REFERENCE: AFAD
MAGNITUDE_W: 6.6
MAGNITUDE_W_REFERENCE: AFAD
MAGNITUDE_L: 
MAGNITUDE_L_REFERENCE: 
FOCAL_MECHANISM: 
NETWORK: TK
STATION_CODE: 3538
STATION_NAME: 
STATION_LATITUDE_DEGREE: 38.318703
STATION_LONGITUDE_DEGREE: 27.123347
STATION_ELEVATION_M: 168.0
LOCATION: -_-_-
SENSOR_DEPTH_M: 
VS30_M/S: None
SITE_CLASSIFICATION_EC8: unknown
MORPHOLOGIC_CLASSIFICATION: 
EPICENTRAL_DISTANCE_KM: 61.18
EARTHQUAKE_BACKAZIMUTH_DEGREE: 
DATE_TIME_FIRST_SAMPLE_YYYYMMDD_HHMMSS: 2020/10/30 11:51:09.1654030
DATE_TIME_FIRST_SAMPLE_PRECISION: millisecond
SAMPLING_INTERVAL_S: 0.01
NDATA: 10501
DURATION_S: 
STREAM: HNE
UNITS: cm/s^2
INSTRUMENT: sensor = ACEBOX/SARA | digitizer = 
INSTRUMENT_ANALOG/DIGITAL: 
INSTRUMENTAL_FREQUENCY_HZ: 
INSTRUMENTAL_DAMPING: 
FULL_SCALE_G: 
N_BIT_DIGITAL_CONVERTER: 
PGA_CM/S^2: 78.399
TIME_PGA_S: 
BASELINE_CORRECTION: BASELINE REMOVED
FILTER_TYPE: BUTTERWORTH
FILTER_ORDER: 
LOW_CUT_FREQUENCY_HZ: 
HIGH_CUT_FREQUENCY_HZ: 
LATE/NORMAL_TRIGGERED: 
DATABASE_VERSION: 
HEADER_FORMAT: DYNA 1.2
DATA_TYPE: Acceleration
PROCESSING: Manual Paolucci et al., 2011
DATA_TIMESTAMP_YYYYMMDD_HHMMSS: 
DATA_LICENSE: U (unknown license)
DATA_CITATION: Turkish Accelerometric Archive v 1.0 - Disaster And Emergency Management Presidency, Earthquake Department
DATA_CREATOR: AFAD
ORIGINAL_DATA_MEDIATOR_CITATION: : AFAD - Disaster And Emergency Management Presidency
ORIGINAL_DATA_MEDIATOR: AFAD PROCESS SERVICE
ORIGINAL_DATA_CREATOR_CITATION: AFAD PROCESS SERVICE
ORIGINAL_DATA_CREATOR: network: TK
USER1: GuestUser
USER2: 
USER3: 
USER4: 
USER5: 
[...]
-0.157132
1.116130
1.896547
1.821968
1.704137
1.781292
1.346665
0.469694
-0.325448
-0.354437
0.172077
-0.093047
-0.575602
0.025727
0.688310
0.238487
-0.938446
-1.557773
-0.971641
-0.334074
-0.175323
0.235461
0.701889
0.645078
0.160185
0.150836
1.156166
2.016542
2.134145
2.414470
2.873182
2.953845
2.861029
2.457731
1.435104
0.417387
-0.421241
-1.539725
-2.595084
-3.193602
-3.345335
-3.047475
-2.592269
-2.398916
-2.570521
-2.574727
-2.110170
-1.728844
-1.488031
-1.011784
-0.532029
-0.500231
-0.537168
0.483827
2.414994
3.912702
4.205652
3.202196
1.635991
0.288386
-0.345904
0.296106
1.332297
1.431430
0.504893
-0.568935
-0.140383
1.477263
1.976656
1.139898
0.511921
0.700130
0.864024
0.519175
0.612697
1.344250
1.674608
0.741993
-1.244814
-2.180702
-0.790775
0.651289
0.012791
-1.247140
-1.116679
-0.415519
-0.802919
-1.686670
-1.315631
0.088557
0.649205
0.100485
0.298046
2.126109
3.538949
2.721362
1.542325
1.955213
2.764387
2.725112
2.370911
2.402944
2.130105
0.564367
-1.102606
-1.186770
-0.027601
1.141387
1.001345
-0.902931
-2.579489
-2.396190
-1.926957
-2.372338
-2.430785
-1.482501
-1.151676
-2.895801
-4.913002
-4.513908
-2.030978
0.766408
2.198185
2.436427
3.586945
5.417113
7.106768
8.756210
9.047991
7.868018
6.017983
3.950048
2.920875
2.709525
2.519684
1.803799
-0.300141
-2.344696
-2.949527
-2.104581
-0.174582
-0.001103
-2.269168
-4.291746
-5.557522
-5.453947
-3.404478
-1.568700
-1.044758
-1.701726
-3.368464
-4.298975
-3.128116
-0.278359
2.505935
3.145373
2.353738
1.846634
0.918694
0.091288
0.946521
2.420849
3.052571
1.383729
-3.154975
-6.729967
-5.757602
-2.650200
-2.380864
-4.789441
-4.080565
1.847133
7.997640
9.317194
6.662194
4.972310
5.280223
4.329840
1.474710
-1.533791
-3.798817
-6.409395
-10.042368
-11.154072
-8.195599
-5.905085
-6.973536
-8.679085
-7.400679
-3.546061
-1.633831
-2.342235
-2.080613
0.401848
3.349333
3.586873
2.490366
4.766385
7.058302
5.782005
6.208219
9.466420
10.722849
8.961657
5.464285
2.565435
2.619679
2.963129
1.103508
0.390896
2.165887
2.171735
-1.430378
-4.775547
-4.252774
-1.629800
-0.476242
-0.333390
1.294076
4.143599
4.661696
1.790668
1.313724
5.385539
6.965076
3.688643
0.952282
0.860168
0.401460
-2.852528
-6.767928
-7.977827
-6.733088
-5.588648
-5.960150
-4.713073
0.099412
3.031466
2.027543
1.992943
3.876183
3.616904
-0.063531
-2.399163
-0.957333
-1.202584
-5.409997
-8.210419
-8.178152
-9.529265
-10.168932
-6.491065
-4.428035
-5.406708
-4.428966
-3.435793
-2.597394
-0.251703
1.988778
4.598659
4.542083
2.207152
3.943800
6.740018
7.351867
7.592213
6.000757
4.272297
5.064638
6.044251
5.106492
2.900149
1.470248
0.323007
-2.107781
-2.852891
0.510051
3.543807
1.216357
-2.533982
-1.221208
1.099466
-1.375042
-4.336082
-4.337483
-5.555097
-9.536428
-12.183478
-10.927517
-7.047649
-3.501410
-1.904573
-0.542701
-0.026007
-2.707426
-4.345407
-2.518045
-1.366124
-1.787658
-3.651721
-5.462713
-3.146949
0.181625
0.184433
-1.236818
-1.122021
2.257988
4.849867
3.275011
3.415525
7.193224
9.316806
7.677422
5.012136
5.956913
8.657975
6.400197
0.227484
-3.899036
-4.444950
-5.010270
-7.891585
-9.407056
-7.396164
-3.579889
1.100267
3.267336
2.910798
4.917014
5.529799
2.570396
2.819626
4.775576
4.268472
3.293072
3.011115
4.341891
5.844275
5.546653
3.405306
-0.090896
1.002810
5.763392
5.430935
2.470596
0.398219
-1.925957
-2.459012
-3.134918
-5.905180
-8.352333
-8.762645
-7.510659
-8.218361
-9.030570
-5.526180
-1.928974
0.585518
3.662059
4.720929
5.587851
7.333618
8.090656
9.834084
12.901507
13.604537
8.431074
1.171437
-0.281143
2.361470
3.934226
3.823175
1.221715
-3.642903
-8.802572
-11.679211
-11.626371
-10.304245
-6.779282
-3.264839
-4.399922
-7.042764
-7.764728
-8.367923
-9.857209
-11.739742
-12.185591
-10.123030
-8.033347
-8.828723
-10.832597
-8.426120
-2.827141
-0.800818
-0.385358
3.028786
8.224933
12.242741
10.726100
6.212413
6.380515
8.368963
8.064328
8.058017
8.741643
9.325904
6.730523
-0.696746
-5.453115
-5.225862
-6.095118
-7.265972
-6.265084
-5.424347
-5.551530
-6.451881
-7.190444
-6.391089
-5.366354
-4.324785
-2.701995
-1.554984
0.325684
3.759233
6.859854
8.817675
9.797989
11.063536
12.749684
12.101600
10.381790
9.993689
7.559861
3.384478
3.454620
6.607144
6.772441
5.756361
7.559641
7.907066
3.985587
-0.197979
-3.151538
-5.593314
-6.990952
-7.258881
-6.650071
-6.139455
-6.285342
-4.874608
-0.266695
3.693132
4.759016
7.373806
9.502065
5.313823
0.047308
-1.728847
-3.847749
-6.775590
-7.983151
-7.259312
-4.851198
-2.419938
-2.473943
-2.247625
2.151974
5.845739
3.321199
-0.610100
0.834769
4.853747
3.729418
-1.040979
-1.800584
-0.087316
-1.393071
-2.992242
-1.070192
2.230793
4.793915
6.249773
4.767968
0.297533
-3.491150
-3.961547
-2.131146
-0.174962
0.643564
-0.400338
-2.288717
-2.541215
-1.326169
-0.954195
-1.889615
-2.388537
-1.007026
0.428257
-0.964237
-3.679556
-4.187829
-2.251050
-0.475591
-0.891982
-2.188386
-2.442287
-1.990355
-1.557126
-2.568531
-4.034671
-2.852824
-1.543557
-0.545708
4.255555
7.313626
3.188976
-0.821580
-0.237552
1.241686
2.712273
4.576808
3.812761
0.360279
0.027354
3.682777
5.547780
6.617638
11.086909
14.376673
11.883695
7.081267
3.977143
2.672791
2.510304
2.022371
-1.540697
-5.608533
-5.742730
-5.519919
-7.204660
-7.122361
-5.828057
-6.156306
-8.626606
-11.242795
-11.188084
-10.200756
-9.624911
-8.437686
-8.760792
-10.178303
-9.670493
-6.928282
-3.192433
-2.241110
-4.072676
-3.236381
-1.121916
-1.682793
-1.940435
-0.243065
0.004295
-3.024313
-6.816268
-6.924047
-3.074572
-0.014398
0.122142
-0.607771
-0.075178
2.383904
4.726321
5.646783
8.137661
12.721259
15.382575
14.205876
9.291460
3.220215
0.424703
-0.900224
-3.405827
-3.528334
-0.323439
3.918113
7.909502
9.150501
7.009855
3.858504
1.840368
1.268269
-0.200210
-2.818035
-3.788759
-3.990056
-6.196633
-8.375387
-6.210890
-1.148943
1.569186
1.271331
-0.469054
-1.274015
1.414188
3.290413
1.577617
0.008372
-0.717800
-0.407549
0.156606
-0.941070
-1.915301
-3.844360
-5.304889
-2.067964
0.467102
-0.077877
0.851236
1.262487
-0.850570
-2.567107
-2.385211
-1.565749
-2.258488
-4.986198
-8.371113
-9.563710
-6.149099
-1.873880
-3.029538
-6.587930
-6.104435
-5.273985
-7.920100
-9.674045
-8.542230
-6.273926
-4.837240
-5.124107
-4.098904
-1.375397
-1.355990
-4.828812
-8.202037
-8.458510
-5.639848
-1.899791
0.893621
2.098381
1.763118
0.174468
-0.668837
1.664930
6.176284
10.076259
11.857796
10.365938
6.732965
5.300023
6.902940
9.734227
13.063502
13.218278
10.400556
10.730914
13.673021
14.799458
12.777348
8.643113
4.626245
0.798986
-0.220134
3.352758
4.171284
0.793150
-0.286757
0.069552
-0.690521
-1.072309
-0.618740
-0.276225
-1.228947
-3.317455
-4.052746
-1.152956
2.263292
0.588838
-4.237436
-6.568627
-4.818652
-1.049370
0.430569
0.463771
3.300201
6.205134
5.745024
3.416405
2.163020
3.442829
3.169756
-0.814615
-3.467510
-2.612511
-1.608116
-3.252644
-5.559051
-5.635033
-4.712701
-3.803227
-3.082194
-3.182491
-5.128383
-9.546681
-12.352714
-12.295198
-12.310626
-10.405644
-6.668392
-4.848512
-5.468774
-6.472931
-5.117606
-2.684475
-1.950817
-2.017915
-1.923692
-1.855421
-2.092489
-1.712099
0.425512
3.711535
6.127130
3.697979
-1.792046
-2.844131
-1.198430
-3.525178
-8.444972
-11.691478
-14.322397
-19.080636
-24.082960
-26.622464
-26.661506
-24.523428
-22.034887
-21.049196
-20.028201
-17.287159
-14.296189
-12.182893
-9.594521
-7.573342
-7.944376
-7.854361
-5.689630
-4.755842
-6.436140
-7.719451
-7.138229
-7.147111
-7.549708
-5.474988
-1.040787
5.958404
13.947025
17.068922
16.693446
18.519872
19.848778
17.018431
13.381950
13.330050
16.694862
19.264998
19.571742
21.622614
26.197561
29.477739
31.573032
33.456973
32.763299
30.219119
28.303153
26.644597
24.245840
20.853444
18.330774
16.807587
13.079925
9.515455
9.868023
10.770717
8.919512
5.670200
3.297628
0.501415
-4.619912
-9.475645
-13.588838
-16.304859
-13.183663
-7.770787
-4.821198
-1.738111
-0.167459
-1.861785
-1.476953
4.118052
10.840427
12.948345
13.163441
16.248866
17.122802
13.370826
8.492415
3.207663
0.803295
1.342667
-0.407537
-2.329816
-0.132821
5.390408
9.970499
11.023992
13.430703
18.317302
21.772360
25.358579
27.118373
23.432795
18.354253
13.909302
9.402862
7.052968
7.281390
7.878043
6.275833
0.281507
-9.946654
-22.071377
-33.020101
-40.450176
-44.729833
-48.005798
-51.795415
-54.750143
-54.749673
-54.127068
-53.490670
-50.272916
-46.680619
-42.723598
-37.478821
-33.439036
-27.392102
-20.631618
-16.195078
-6.627624
4.486398
11.211579
21.567397
31.019356
34.051241
40.164340
45.601532
43.503203
41.626983
42.243041
42.376541
41.818469
39.444962
35.783699
30.206701
21.796315
13.125010
5.656125
-0.225744
-6.430254
-16.137047
-27.265560
-37.488110
-45.734838
-48.771161
-49.278499
-49.476757
-42.200282
-29.559563
-21.608350
-18.566645
-19.344954
-21.498458
-21.129290
-22.142331
-22.627692
-17.291969
-8.758132
1.636029
12.582653
23.074307
31.878647
36.574233
43.715106
53.180858
54.907453
51.455672
46.844023
39.390335
31.355427
21.312434
8.194072
-2.003695
-7.912685
-13.190656
-17.126163
-17.764427
-17.869634
-20.853586
-26.018165
-32.889465
-41.702217
-48.457319
-52.308425
-54.010701
-48.791408
-41.240222
-38.031352
-34.555486
-31.089673
-27.922185
-22.385162
-17.383068
-12.575726
-8.946021
-7.632546
-8.026258
-12.159090
-11.975791
-4.633619
1.074777
7.515192
18.307978
32.165144
44.793004
49.503320
53.930040
63.723342
68.975833
67.854544
65.215910
61.867234
58.734353
54.206404
46.597708
37.583423
27.961966
20.272143
16.926974
14.308914
11.691790
11.699741
10.328523
6.548725
5.641594
5.946935
3.620187
0.986697
-0.056271
-1.872172
-7.466938
-15.586247
-22.301837
-26.880988
-29.084058
-27.675661
-26.314023
-28.806066
-33.014648
-36.855701
-37.436451
-32.058644
-26.209502
-22.963459
-18.738038
-14.941636
-11.661224
-5.127758
3.312560
12.321940
21.396549
28.347811
34.194148
37.226735
35.625226
36.003278
38.305716
36.611389
34.712958
35.346785
36.031345
35.257712
30.552545
23.204533
15.497174
7.035586
1.090358
-0.713152
-2.566227
-6.553871
-11.038568
-16.275858
-22.720244
-27.936258
-31.814719
-35.308115
-38.533580
-41.968293
-42.073500
-38.210232
-33.721322
-27.563333
-22.071901
-20.025939
-18.171924
-18.333242
-22.741020
-25.082263
-23.244381
-21.925294
-19.072264
-12.378646
-7.582994
-6.268116
-6.105157
-5.282890
-1.525765
2.058115
4.576581
8.541318
11.587465
13.145492
12.232750
9.663788
13.653306
22.708978
27.949546
29.311417
28.159968
24.629398
21.193048
15.853588
6.196595
-2.813950
-8.385103
-15.249622
-23.401896
-24.886039
-19.643835
-16.196492
-14.100964
-10.222733
-9.487906
-11.742411
-13.992707
-19.670004
-26.558370
-28.821993
-28.118027
-26.076741
-22.498706
-17.155033
-6.454831
7.697621
19.311268
28.960785
36.448612
39.657482
40.513416
41.073597
42.312023
43.035862
40.605074
35.074602
28.548387
23.072156
17.336878
10.533613
5.391712
0.515639
-4.699207
-6.733708
-7.585196
-8.464271
-6.472082
-4.783596
-6.432332
-9.593035
-14.644690
-19.766017
-21.935186
-22.954306
-22.285176
-20.035109
-20.007051
-19.999333
-17.090192
-12.510569
-6.487481
-0.697256
3.957650
8.754003
12.450808
14.947064
16.886882
17.971002
21.094068
25.681406
27.640864
28.060766
27.169299
25.415120
27.216063
30.635818
32.090507
33.562964
34.624172
33.911794
33.603418
35.183656
36.989275
35.216860
28.013101
16.754362
2.213109
-13.761086
-27.860930
-38.504314
-44.063777
-46.361300
-49.188141
-51.982016
-54.489255
-53.339438
-46.572875
-41.630399
-38.665146
-34.866873
-32.837745
-28.757980
-22.997915
-19.810554
-15.885330
-11.356674
-8.455716
-4.737402
1.752813
9.399388
15.837933
22.256840
26.311120
24.447057
21.399980
17.861928
11.040427
4.264751
-1.684452
-5.183927
-4.371246
-5.679339
-10.209626
-12.858313
-12.658648
-9.163143
-5.207525
-4.302493
-4.331716
-4.095812
-4.089497
-4.468246
-5.004809
-4.006258
-2.054750
0.116059
5.024869
12.190524
16.866004
17.499830
16.771554
14.499748
8.116150
-1.101772
-10.410174
-18.665554
-24.532927
-26.113161
-22.445581
-15.134738
-5.521694
4.049969
9.377977
13.524841
18.778268
21.382070
24.064662
25.176838
20.748253
19.502116
21.614009
19.154230
14.767026
9.002991
0.173873
-7.090673
-12.189789
-18.982299
-27.272748
-34.856427
-40.896343
-45.258998
-46.820995
-41.357619
-28.634603
-13.600969
1.471008
11.806018
16.588110
19.467559
14.751637
7.011547
6.914289
7.232022
3.928469
1.364417
0.423151
0.921609
1.240745
4.218857
11.513567
19.826699
27.262390
29.003480
27.076525
27.857177
27.116743
23.743986
20.588193
15.975609
11.720735
7.337272
-0.063578
-4.243871
-1.998947
-1.227882
-4.902705
-8.249043
-10.235382
-12.723684
-15.555902
-18.819242
-21.712247
-21.634157
-19.963907
-19.838121
-20.512390
-19.937481
-16.239273
-9.241485
-2.246269
1.551069
1.176060
-3.679907
-11.477277
-18.962294
-27.041624
-36.313086
-42.352067
-45.313341
-47.734543
-49.581539
-49.252584
-41.838871
-28.821037
-15.149272
-0.892078
11.753317
24.129845
37.769346
46.769607
52.220593
59.424356
65.598711
68.800099
73.688101
78.399118
76.183423
72.504158
69.884930
61.411885
53.143647
49.315921
42.975341
35.424159
26.119732
12.093301
0.654538
-7.139559
-14.455307
-15.694430
-12.139540
-11.004452
-10.323399
-7.622337
-6.129773
-7.101899
-9.678343
-14.168651
-19.943675
-26.031052
-33.073257
-38.733487
-37.999127
-30.483010
-18.819330
-5.559282
6.135961
15.696634
22.858081
25.768625
25.054377
21.009920
13.211848
3.576130
-5.234751
-10.360988
-10.754934
-7.234646
-1.558280
1.810273
0.549173
-3.269669
-8.552082
-15.098404
-22.027451
-28.420869
-31.738683
-31.346369
-31.015310
-31.355015
-29.168307
-23.578680
-16.275319
-10.896343
-10.695041
-13.807114
-17.176598
-23.166248
-31.122834
-36.159292
-40.786839
-47.011222
-52.589388
-57.812885
-60.445440
-57.960172
-50.687205
-39.839477
-26.110432
-10.369327
2.036426
11.593359
23.392875
33.375085
37.613832
38.764351
41.063749
45.425239
49.986392
52.664776
49.636870
46.745735
49.828588
48.578009
40.374767
29.461347
12.802592
-3.800284
-13.149835
-18.331949
-19.883191
-18.034554
-17.716588
-19.366726
-20.718540
-22.499372
-24.411363
-25.414819
-25.459472
-23.795067
-19.629966
-13.290317
-6.502479
1.661022
13.461474
25.402438
34.948850
43.835954
50.586151
53.899528
54.181490
51.295732
48.622263
46.789762
40.531947
29.496952
16.577084
3.726653
-5.039339
-8.823346
-9.155102
-6.943845
-5.246241
-3.472185
0.232569
3.098692
4.835808
6.403888
8.089569
11.840614
15.138327
14.903363
15.188832
19.402328
24.027542
23.463158
15.518495
3.936415
-4.381155
-8.100633
-11.125500
-15.697637
-22.725580
-29.943367
-33.118799
-32.698663
-30.773107
-28.056147
-25.969504
-25.847226
-27.268009
-29.032943
-30.217123
-27.963082
-20.693621
-10.699955
-0.805418
3.898585
2.111207
0.270056
-0.127163
-1.638660
-3.126544
-4.478591
-5.762837
-4.358649
-0.139073
5.055437
11.676110
17.804406
19.512297
17.520113
13.176630
7.886267
5.805708
7.689649
11.144707
13.081252
10.696288
5.824891
0.720397
-4.336869
-8.255075
-11.880801
-14.739672
-14.045759
-11.613330
-9.669537
-7.182166
-4.931631
-3.725235
-2.843817
-2.719902
-3.413109
-4.402770
-6.250702
-10.491314
-17.445144
-22.329400
-20.418807
-14.899085
-9.455113
-3.018906
3.750696
10.157211
16.774143
20.980626
21.588033
19.441777
14.282107
9.389434
7.899213
7.689733
6.751273
4.735241
0.902137
-5.234337
-12.118495
-16.899180
-19.840581
-22.441573
-23.601439
-22.961534
-21.362124
-18.063710
-10.576818
2.900194
19.382669
34.592587
47.432968
56.375950
60.065974
59.229684
55.722026
53.045283
52.173455
50.859985
48.600103
45.744505
42.165305
37.488894
31.057134
22.544812
11.001775
-3.399900
-18.275717
-32.092431
-43.992710
-52.085366
-55.110934
-54.455364
-51.470472
-46.112538
-40.103712
-34.162454
-28.775529
-27.683226
-28.624959
-26.778426
-25.314853
-24.228862
-19.815703
-13.384639
-4.774117
4.305636
9.779767
14.313800
19.447055
23.957941
27.227365
25.421517
21.023091
19.024594
15.718937
11.718201
10.672428
9.900198
9.380235
8.393846
3.704577
-0.291250
-0.595184
-0.094154
1.368484
1.908324
-0.060948
-0.567818
-0.639124
-1.758543
-0.728898
-0.071458
-2.807351
-7.930782
-16.088668
-25.031878
-30.670832
-33.882269
-36.818995
-39.530105
-41.737383
-42.593546
-40.114124
-34.409936
-28.737778
-23.447178
-16.929142
-12.432750
-10.502985
-7.626342
-5.890161
-3.939822
1.124463
3.915537
5.388462
8.237518
8.686411
8.577230
8.124601
8.311641
14.727274
21.425568
23.849814
24.759287
20.116544
11.210039
3.940583
-3.251252
-9.077244
-9.536420
-6.792573
-3.659220
-0.104330
3.067132
5.027291
5.979783
5.447429
4.451689
4.702088
4.776672
4.600391
6.928780
10.775916
13.422270
16.323930
21.031206
24.492343
24.320271
23.196643
21.928295
17.615907
12.758537
12.211922
15.290099
20.689649
27.792880
33.085117
35.216181
37.086328
39.283089
40.486914
41.078890
39.026387
31.828940
21.387790
8.958896
-5.265327
-17.962854
-25.309697
-26.576175
-24.876700
-24.226975
-26.172400
-30.445511
-35.059263
-36.647914
-35.076092
-33.174383
-29.468694
-22.499429
-17.925183
-17.595293
-17.696525
-19.086448
-21.105051
-20.019528
-17.533559
-16.516539
-17.543374
-20.325326
-22.496131
-23.375440
-25.027917
-26.049843
-23.965304
-21.105727
-18.735956
-16.041908
-14.739889
-14.205893
-12.902238
-10.695189
-6.717126
-3.613933
-1.863958
0.808347
2.384610
4.255224
6.732776
6.306566
6.558134
8.040411
7.310966
7.617710
8.893544
8.107988
6.997921
5.841328
4.188150
4.046237
5.766753
8.048383
9.873173
10.503960
10.607301
11.300278
11.210269
8.506172
4.663015
2.187104
1.293299
0.763751
0.598225
3.545709
11.283933
20.273908
26.140117
28.497030
28.783901
27.353766
24.523418
21.678108
19.167361
17.089607
14.982862
9.353494
1.161708
-4.400327
-8.637666
-13.657993
-16.969962
-18.117437
-18.774873
-19.672418
-20.664885
-21.696397
-21.489016
-17.533866
-9.909968
-0.024784
9.587092
15.623505
18.719685
20.000662
20.512681
22.668995
22.590208
16.179255
8.401758
1.245927
-9.227487
-20.959899
-29.718176
-36.304009
-42.637107
-47.264654
-47.715646
-47.005602
-46.402169
-42.116897
-36.009876
-30.462800
-25.680474
-22.938030
-20.151398
-15.586504
-8.244800
0.283658
6.795616
14.430034
22.529943
27.479199
30.102407
30.198967
30.694152
30.988038
25.999274
19.839186
15.280141
9.893922
5.067648
1.132141
-2.118107
-3.073868
-2.390008
-1.919606
-1.943919
-0.826132
2.302078
5.367630
6.928463
7.782293
8.284258
8.428045
8.204771
7.562065
7.361937
7.902946
8.822473
9.994968
10.754110
10.749203
9.273009
6.222892
4.467311
5.372109
7.099639
8.209944
7.489150
3.983830
-1.729238
-8.610591
-15.722701
-20.807322
-22.361838
-22.886944
